start=new Date('2021-09-15T00:00:00.000Z').valueOf();
sats=[{"REF_FRAME":"TEME","MEAN_MOTION_DDOT":"0.0000000000000","CENTER_NAME":"EARTH","PERIAPSIS":"546.349","NORAD_CAT_ID":"46696","EPOCH":"2021-09-14T14:51:59.370624","TLE_LINE2":"2 46696  53.0565  10.6994 0001306 111.2943 248.8186 15.06386826 50666","RCS_SIZE":"LARGE","ARG_OF_PERICENTER":"111.2943","FILE":"3115650","INCLINATION":"53.0565","ELEMENT_SET_NO":"999","OBJECT_NAME":"STARLINK-1795","CLASSIFICATION_TYPE":"U","OBJECT_TYPE":"PAYLOAD","PERIOD":"95.593","MEAN_ELEMENT_THEORY":"SGP4","LAUNCH_DATE":"2020-10-18","COUNTRY_CODE":"US","OBJECT_ID":"2020-073AC","MEAN_ANOMALY":"248.8186","SITE":"AFETR","GP_ID":"184722858","MEAN_MOTION_DOT":"-0.00000273","MEAN_MOTION":"15.06386826","DECAY_DATE":null,"RA_OF_ASC_NODE":"10.6994","REV_AT_EPOCH":"5066","SEMIMAJOR_AXIS":"6925.389","EPHEMERIS_TYPE":"0","ECCENTRICITY":"0.00013060","TLE_LINE1":"1 46696U 20073AC  21257.61943716 -.00000273  00000-0  54063-6 0  9994","TIME_SYSTEM":"UTC","APOAPSIS":"548.158","BSTAR":"0.00000054063000"},{"COUNTRY_CODE":"US","MEAN_ANOMALY":"256.9844","OBJECT_ID":"2020-073AE","SITE":"AFETR","GP_ID":"184724109","MEAN_MOTION_DOT":"-0.00000452","DECAY_DATE":null,"RA_OF_ASC_NODE":"30.4618","MEAN_MOTION":"15.06392827","REV_AT_EPOCH":"5039","EPHEMERIS_TYPE":"0","ECCENTRICITY":"0.00013820","SEMIMAJOR_AXIS":"6925.371","APOAPSIS":"548.193","TLE_LINE1":"1 46698U 20073AE  21257.67656683 -.00000452  00000-0 -11473-4 0  9992","TIME_SYSTEM":"UTC","BSTAR":"-0.00001147300000","CENTER_NAME":"EARTH","MEAN_MOTION_DDOT":"0.0000000000000","REF_FRAME":"TEME","EPOCH":"2021-09-14T16:14:15.374112","NORAD_CAT_ID":"46698","PERIAPSIS":"546.278","RCS_SIZE":"LARGE","TLE_LINE2":"2 46698  53.0574  30.4618 0001382 103.1299 256.9844 15.06392827 50398","ARG_OF_PERICENTER":"103.1299","ELEMENT_SET_NO":"999","INCLINATION":"53.0574","FILE":"3115650","CLASSIFICATION_TYPE":"U","OBJECT_NAME":"STARLINK-1797","MEAN_ELEMENT_THEORY":"SGP4","PERIOD":"95.593","OBJECT_TYPE":"PAYLOAD","LAUNCH_DATE":"2020-10-18"},{"MEAN_MOTION_DDOT":"0.0000000000000","REF_FRAME":"TEME","CENTER_NAME":"EARTH","PERIAPSIS":"546.115","EPOCH":"2021-09-14T21:06:09.977760","NORAD_CAT_ID":"46699","TLE_LINE2":"2 46699  53.0569  29.5430 0001598  99.9767 260.1403 15.06397292 50428","RCS_SIZE":"LARGE","ARG_OF_PERICENTER":"99.9767","FILE":"3115650","ELEMENT_SET_NO":"999","INCLINATION":"53.0569","CLASSIFICATION_TYPE":"U","OBJECT_NAME":"STARLINK-1799","PERIOD":"95.592","OBJECT_TYPE":"PAYLOAD","MEAN_ELEMENT_THEORY":"SGP4","LAUNCH_DATE":"2020-10-18","COUNTRY_CODE":"US","MEAN_ANOMALY":"260.1403","OBJECT_ID":"2020-073AF","SITE":"AFETR","GP_ID":"184724360","MEAN_MOTION_DOT":"0.00001759","MEAN_MOTION":"15.06397292","DECAY_DATE":null,"RA_OF_ASC_NODE":"29.5430","REV_AT_EPOCH":"5042","SEMIMAJOR_AXIS":"6925.357","EPHEMERIS_TYPE":"0","ECCENTRICITY":"0.00015980","TLE_LINE1":"1 46699U 20073AF  21257.87928215  .00001759  00000-0  13699-3 0  9998","BSTAR":"0.00013699000000","APOAPSIS":"548.329","TIME_SYSTEM":"UTC"},{"TLE_LINE2":"2 46700  53.0560  46.6259 0001576  88.8424 271.2746 15.06401646 50145","RCS_SIZE":"LARGE","ARG_OF_PERICENTER":"88.8424","REF_FRAME":"TEME","MEAN_MOTION_DDOT":"0.0000000000000","CENTER_NAME":"EARTH","PERIAPSIS":"546.117","NORAD_CAT_ID":"46700","EPOCH":"2021-09-14T10:03:21.911040","OBJECT_TYPE":"PAYLOAD","PERIOD":"95.592","MEAN_ELEMENT_THEORY":"SGP4","LAUNCH_DATE":"2020-10-18","FILE":"3115492","INCLINATION":"53.0560","ELEMENT_SET_NO":"999","OBJECT_NAME":"STARLINK-1800","CLASSIFICATION_TYPE":"U","GP_ID":"184697477","MEAN_MOTION_DOT":"0.00000242","MEAN_ANOMALY":"271.2746","COUNTRY_CODE":"US","OBJECT_ID":"2020-073AG","SITE":"AFETR","SEMIMAJOR_AXIS":"6925.344","EPHEMERIS_TYPE":"0","ECCENTRICITY":"0.00015760","TLE_LINE1":"1 46700U 20073AG  21257.41900360  .00000242  00000-0  35160-4 0  9996","TIME_SYSTEM":"UTC","APOAPSIS":"548.300","BSTAR":"0.00003516000000","MEAN_MOTION":"15.06401646","DECAY_DATE":null,"RA_OF_ASC_NODE":"46.6259","REV_AT_EPOCH":"5014"},{"SEMIMAJOR_AXIS":"6925.378","EPHEMERIS_TYPE":"0","ECCENTRICITY":"0.00015180","TLE_LINE1":"1 46701U 20073AH  21257.84980271 -.00000210  00000-0  48059-5 0  9991","BSTAR":"0.00000480590000","APOAPSIS":"548.294","TIME_SYSTEM":"UTC","MEAN_MOTION":"15.06390360","RA_OF_ASC_NODE":"29.6766","DECAY_DATE":null,"REV_AT_EPOCH":"5042","GP_ID":"184723358","MEAN_MOTION_DOT":"-0.00000210","COUNTRY_CODE":"US","MEAN_ANOMALY":"242.9149","OBJECT_ID":"2020-073AH","SITE":"AFETR","PERIOD":"95.593","OBJECT_TYPE":"PAYLOAD","MEAN_ELEMENT_THEORY":"SGP4","LAUNCH_DATE":"2020-10-18","FILE":"3115650","ELEMENT_SET_NO":"999","INCLINATION":"53.0546","CLASSIFICATION_TYPE":"U","OBJECT_NAME":"STARLINK-1801","TLE_LINE2":"2 46701  53.0546  29.6766 0001518 117.1995 242.9149 15.06390360 50422","RCS_SIZE":"LARGE","ARG_OF_PERICENTER":"117.1995","MEAN_MOTION_DDOT":"0.0000000000000","REF_FRAME":"TEME","CENTER_NAME":"EARTH","PERIAPSIS":"546.192","EPOCH":"2021-09-14T20:23:42.954144","NORAD_CAT_ID":"46701"},{"REV_AT_EPOCH":"5065","MEAN_MOTION":"15.06404321","RA_OF_ASC_NODE":"11.1104","DECAY_DATE":null,"APOAPSIS":"550.373","TLE_LINE1":"1 46702U 20073AJ  21257.53097360 -.00000375  00000-0 -61930-5 0  9992","BSTAR":"-0.00000619300000","TIME_SYSTEM":"UTC","SEMIMAJOR_AXIS":"6925.335","ECCENTRICITY":"0.00045810","EPHEMERIS_TYPE":"0","SITE":"AFETR","MEAN_ANOMALY":"273.6071","COUNTRY_CODE":"US","OBJECT_ID":"2020-073AJ","MEAN_MOTION_DOT":"-0.00000375","GP_ID":"184723610","CLASSIFICATION_TYPE":"U","OBJECT_NAME":"STARLINK-1802","FILE":"3115650","ELEMENT_SET_NO":"999","INCLINATION":"53.0578","LAUNCH_DATE":"2020-10-18","PERIOD":"95.592","OBJECT_TYPE":"PAYLOAD","MEAN_ELEMENT_THEORY":"SGP4","PERIAPSIS":"544.028","EPOCH":"2021-09-14T12:44:36.119040","NORAD_CAT_ID":"46702","MEAN_MOTION_DDOT":"0.0000000000000","REF_FRAME":"TEME","CENTER_NAME":"EARTH","ARG_OF_PERICENTER":"86.5442","TLE_LINE2":"2 46702  53.0578  11.1104 0004581  86.5442 273.6071 15.06404321 50652","RCS_SIZE":"LARGE"},{"CLASSIFICATION_TYPE":"U","OBJECT_NAME":"STARLINK-1803","FILE":"3115650","ELEMENT_SET_NO":"999","INCLINATION":"53.0572","LAUNCH_DATE":"2020-10-18","PERIOD":"95.592","OBJECT_TYPE":"PAYLOAD","MEAN_ELEMENT_THEORY":"SGP4","PERIAPSIS":"546.330","EPOCH":"2021-09-14T21:27:24.748416","NORAD_CAT_ID":"46703","MEAN_MOTION_DDOT":"0.0000000000000","REF_FRAME":"TEME","CENTER_NAME":"EARTH","ARG_OF_PERICENTER":"98.3225","RCS_SIZE":"LARGE","TLE_LINE2":"2 46703  53.0572  29.4884 0001284  98.3225 261.7910 15.06398317 50423","REV_AT_EPOCH":"5042","MEAN_MOTION":"15.06398317","RA_OF_ASC_NODE":"29.4884","DECAY_DATE":null,"TLE_LINE1":"1 46703U 20073AK  21257.89403644  .00000305  00000-0  39376-4 0  9997","APOAPSIS":"548.108","TIME_SYSTEM":"UTC","BSTAR":"0.00003937600000","SEMIMAJOR_AXIS":"6925.354","ECCENTRICITY":"0.00012840","EPHEMERIS_TYPE":"0","SITE":"AFETR","COUNTRY_CODE":"US","OBJECT_ID":"2020-073AK","MEAN_ANOMALY":"261.7910","MEAN_MOTION_DOT":"0.00000305","GP_ID":"184723861"},{"MEAN_MOTION_DOT":"-0.00000274","GP_ID":"184722609","SITE":"AFETR","COUNTRY_CODE":"US","MEAN_ANOMALY":"271.6105","OBJECT_ID":"2020-073AL","TLE_LINE1":"1 46704U 20073AL  21257.54203988 -.00000274  00000-0  63510-6 0  9994","BSTAR":"0.00000063510000","APOAPSIS":"551.228","TIME_SYSTEM":"UTC","SEMIMAJOR_AXIS":"6925.381","EPHEMERIS_TYPE":"0","ECCENTRICITY":"0.00057500","REV_AT_EPOCH":"5065","MEAN_MOTION":"15.06389294","DECAY_DATE":null,"RA_OF_ASC_NODE":"11.0451","ARG_OF_PERICENTER":"88.5542","TLE_LINE2":"2 46704  53.0554  11.0451 0005750  88.5542 271.6105 15.06389294 50651","RCS_SIZE":"LARGE","PERIAPSIS":"543.264","NORAD_CAT_ID":"46704","EPOCH":"2021-09-14T13:00:32.245632","REF_FRAME":"TEME","MEAN_MOTION_DDOT":"0.0000000000000","CENTER_NAME":"EARTH","LAUNCH_DATE":"2020-10-18","OBJECT_TYPE":"PAYLOAD","PERIOD":"95.593","MEAN_ELEMENT_THEORY":"SGP4","OBJECT_NAME":"STARLINK-1804","CLASSIFICATION_TYPE":"U","FILE":"3115650","INCLINATION":"53.0554","ELEMENT_SET_NO":"999"},{"PERIOD":"95.592","OBJECT_TYPE":"PAYLOAD","MEAN_ELEMENT_THEORY":"SGP4","LAUNCH_DATE":"2020-10-18","FILE":"3115650","ELEMENT_SET_NO":"999","INCLINATION":"53.0551","CLASSIFICATION_TYPE":"U","OBJECT_NAME":"STARLINK-1805","TLE_LINE2":"2 46705  53.0551  44.5064 0001583 106.0975 254.0188 15.06397399 50219","RCS_SIZE":"LARGE","ARG_OF_PERICENTER":"106.0975","MEAN_MOTION_DDOT":"0.0000000000000","REF_FRAME":"TEME","CENTER_NAME":"EARTH","PERIAPSIS":"546.125","EPOCH":"2021-09-14T21:17:27.327840","NORAD_CAT_ID":"46705","SEMIMAJOR_AXIS":"6925.357","EPHEMERIS_TYPE":"0","ECCENTRICITY":"0.00015830","TLE_LINE1":"1 46705U 20073AM  21257.88712185 -.00000335  00000-0 -35973-5 0  9996","APOAPSIS":"548.318","BSTAR":"-0.00000359730000","TIME_SYSTEM":"UTC","MEAN_MOTION":"15.06397399","RA_OF_ASC_NODE":"44.5064","DECAY_DATE":null,"REV_AT_EPOCH":"5021","GP_ID":"184722859","MEAN_MOTION_DOT":"-0.00000335","COUNTRY_CODE":"US","MEAN_ANOMALY":"254.0188","OBJECT_ID":"2020-073AM","SITE":"AFETR"},{"ARG_OF_PERICENTER":"106.8234","TLE_LINE2":"2 46706  53.0552  30.2233 0001501 106.8234 253.2920 15.06399017 50402","RCS_SIZE":"LARGE","NORAD_CAT_ID":"46706","EPOCH":"2021-09-14T17:28:33.360960","PERIAPSIS":"546.177","CENTER_NAME":"EARTH","REF_FRAME":"TEME","MEAN_MOTION_DDOT":"0.0000000000000","LAUNCH_DATE":"2020-10-18","MEAN_ELEMENT_THEORY":"SGP4","OBJECT_TYPE":"PAYLOAD","PERIOD":"95.592","OBJECT_NAME":"STARLINK-1807","CLASSIFICATION_TYPE":"U","INCLINATION":"53.0552","ELEMENT_SET_NO":"999","FILE":"3115650","MEAN_MOTION_DOT":"-0.00000360","GP_ID":"184724110","SITE":"AFETR","OBJECT_ID":"2020-073AN","COUNTRY_CODE":"US","MEAN_ANOMALY":"253.2920","APOAPSIS":"548.256","TLE_LINE1":"1 46706U 20073AN  21257.72816390 -.00000360  00000-0 -52975-5 0  9992","TIME_SYSTEM":"UTC","BSTAR":"-0.00000529750000","EPHEMERIS_TYPE":"0","ECCENTRICITY":"0.00015010","SEMIMAJOR_AXIS":"6925.352","REV_AT_EPOCH":"5040","RA_OF_ASC_NODE":"30.2233","DECAY_DATE":null,"MEAN_MOTION":"15.06399017"}];
